0 CZ-3C DEB
1 39344U 10057J   13293.88297456  .00002191  00000-0  29866-2 0    35
2 39344 020.3127 221.1971 7172195 220.8620 054.1894 02.36574793 18180
